M2 PATHFINDER           
1 45727U 20037E   26203.49017772  .00002141  00000+0  15601-3 0  9990
2 45727  97.8143  35.1217 0012250  39.2176 320.9935 15.04811892330800
NETSAT-4                
1 46504U 20068U   26203.50045616  .00019129  00000+0  40798-3 0  9997
2 46504  97.8612 214.6093 0005631 168.7505 191.3869 15.44937463321229
NETSAT-3                
1 46505U 20068V   26203.01472178  .00019756  00000+0  43820-3 0  9996
2 46505  97.8664 212.2581 0004660 184.8573 175.2630 15.43774416321052
NETSAT-1                
1 46506U 20068W   26203.46684142  .00012773  00000+0  37418-3 0  9990
2 46506  97.8765 206.6517 0003017 222.2232 137.8779 15.35366097320718
NETSAT-2                
1 46507U 20068X   26202.90586135  .00024350  00000+0  47723-3 0  9996
2 46507  97.8624 213.9959 0003149 182.0467 178.0769 15.47372394321103
GREENCUBE (IO-117)      
1 53109U 22080E   26202.26867320 -.00000003  00000+0  00000+0 0  9998
2 53109  70.1384 286.3946 0009377 282.6707  77.2904  6.42583331 94253
SITRO-AIS 5 (KATYS)     
1 57176U 23091L   26203.52119963  .00013074  00000+0  44947-3 0  9995
2 57176  97.5039 267.7712 0009915 345.5170  14.5785 15.30178553169747
SITRO-AIS 6 (CHIRKIN)   
1 57192U 23091AC  26203.58315168  .00010410  00000+0  40053-3 0  9999
2 57192  97.5048 266.7617 0010398 350.0307  10.0723 15.26532269169687
SITRO-AIS 8 (ANOKHIN)   
1 57193U 23091AD  26203.54011703  .00015460  00000+0  48658-3 0  9993
2 57193  97.5035 269.5269 0008799 340.0621  20.0276 15.32995047169866
SITRO-AIS 7 (FARTUSHNIY)
1 57194U 23091AE  26203.59372793  .00009986  00000+0  38817-3 0  9990
2 57194  97.5044 266.5786 0010340 351.4161   8.6898 15.26203066169675
SITRO-AIS 10 (BURDAEV)  
1 57199U 23091AK  26203.54880456  .00022945  00000+0  57930-3 0  9997
2 57199  97.5061 274.9651 0004451 307.1408  52.9430 15.39830045170203
SITRO-AIS 9 (SHCHUKIN)  
1 57201U 23091AM  26203.52179952  .00020110  00000+0  51691-3 0  9991
2 57201  97.5059 274.6388 0004663 307.7307  52.3516 15.39307388170182
SITRO-AIS 12 (SMIRENNIY)
1 57204U 23091AQ  26203.57067261  .00020981  00000+0  53391-3 0  9993
2 57204  97.5071 275.1786 0004336 299.1373  60.9438 15.39607119170218
SITRO-AIS 11 (SHEFFER)  
1 57208U 23091AU  26203.57405452  .00021634  00000+0  54235-3 0  9999
2 57208  97.5070 275.4514 0004288 298.3320  61.7492 15.40057790170239
SITRO-AIS 25            
1 59066U 24039R   26203.61615757  .00003328  00000+0  25961-3 0  9996
2 59066  95.3885 259.4379 0143561 203.3340 156.1328 14.93672785130013
SITRO-AIS 26            
1 59067U 24039S   26203.62242897  .00003469  00000+0  27182-3 0  9992
2 59067  95.3886 259.3323 0143879 203.9173 155.5326 14.93462726130007
SITRO-AIS 27            
1 59068U 24039T   26203.58267257  .00004211  00000+0  32639-3 0  9994
2 59068  95.3895 259.5932 0142866 202.5166 156.9751 14.93893765130028
SITRO-AIS 28            
1 59071U 24039U   26203.62630388  .00003987  00000+0  30894-3 0  9992
2 59071  95.3888 259.6724 0142870 202.2434 157.2557 14.93923117130038
GRBBETA                 
1 60237U 24128C   26203.19366322  .00003116  00000+0  21945-3 0  9994
2 60237  61.9898  93.4263 0036122 142.1636 218.2007 15.06841666111540
OOV-CUBE (TUBSAT-30)    
1 60240U 24128F   26203.25313467  .00001541  00000+0  12811-3 0  9999
2 60240  61.9942 103.2884 0040191 141.6330 218.7632 15.02894414111385
ROBUSTA-3A (MEDITERRAN*)
1 60243U 24128J   26203.25461599  .00007446  00000+0  43631-3 0  9996
2 60243  61.9863  84.1966 0037085 135.3056 225.1039 15.12055488111723
LASARSAT                
1 62391U 24247Q   26203.61043180  .00037731  00000+0  69796-3 0  9996
2 62391  44.9743  62.8371 0008577 212.1409 147.8959 15.48418304 88802
CROCUBE                 
1 62394U 24247T   26203.30367190  .00043823  00000+0  74884-3 0  9998
2 62394  44.9714  61.2787 0008691 216.8409 143.1886 15.50606794 88796
FORESAIL-1 PRIME        
1 66778U 25276DS  26203.44066478  .00003879  00000+0  18870-3 0  9991
2 66778  97.4184 276.0699 0002287  27.1883 332.9471 15.18980330 35753
KNACKSAT-2              
1 67683U 98067XZ  26203.48508607  .00058135  00000+0  62867-3 0  9994
2 67683  51.6274 116.5146 0007586 352.0545   8.0328 15.62993156 25792
