OBJECT_NAME,OBJECT_ID,EPOCH,MEAN_MOTION,ECCENTRICITY,INCLINATION,RA_OF_ASC_NODE,ARG_OF_PERICENTER,MEAN_ANOMALY,EPHEMERIS_TYPE,CLASSIFICATION_TYPE,NORAD_CAT_ID,ELEMENT_SET_NO,REV_AT_EPOCH,BSTAR,MEAN_MOTION_DOT,MEAN_MOTION_DDOT
M2 PATHFINDER,2020-037E,2026-07-22T11:45:51.355008,15.04811892,.00122506,97.8143,35.1217,39.2176,320.9935,0,U,45727,999,33080,.15600842E-3,.2141E-4,0
NETSAT-4,2020-068U,2026-07-22T12:00:39.412224,15.44937463,.00056313,97.8612,214.6093,168.7505,191.3869,0,U,46504,999,32122,.40797925E-3,.19129E-3,0
NETSAT-3,2020-068V,2026-07-22T00:21:11.961792,15.43774416,.00046608,97.8664,212.2581,184.8573,175.2630,0,U,46505,999,32105,.43820067E-3,.19756E-3,0
NETSAT-1,2020-068W,2026-07-22T11:12:15.098688,15.35366097,.00030173,97.8765,206.6517,222.2232,137.8779,0,U,46506,999,32071,.37417845E-3,.12773E-3,0
NETSAT-2,2020-068X,2026-07-21T21:44:26.420640,15.47372394,.00031492,97.8624,213.9959,182.0467,178.0769,0,U,46507,999,32110,.4772301E-3,.2435E-3,0
GREENCUBE (IO-117),2022-080E,2026-07-21T06:26:53.364480,6.42583331,.0009377,70.1384,286.3946,282.6707,77.2904,0,U,53109,999,9425,0,-.3E-7,0
SITRO-AIS 5 (KATYS),2023-091L,2026-07-22T12:30:31.648032,15.30178553,.0009915,97.5039,267.7712,345.5170,14.5785,0,U,57176,999,16974,.4494692E-3,.13074E-3,0
SITRO-AIS 6 (CHIRKIN),2023-091AC,2026-07-22T13:59:44.305152,15.26532269,.0010398,97.5048,266.7617,350.0307,10.0723,0,U,57192,999,16968,.40053122E-3,.1041E-3,0
SITRO-AIS 8 (ANOKHIN),2023-091AD,2026-07-22T12:57:46.111392,15.32995047,.00087997,97.5035,269.5269,340.0621,20.0276,0,U,57193,999,16986,.4865792E-3,.1546E-3,0
SITRO-AIS 7 (FARTUSHNIY),2023-091AE,2026-07-22T14:14:58.093152,15.26203066,.00103403,97.5044,266.5786,351.4161,8.6898,0,U,57194,999,16967,.38817491E-3,.9986E-4,0
SITRO-AIS 10 (BURDAEV),2023-091AK,2026-07-22T13:10:16.713984,15.39830045,.00044516,97.5061,274.9651,307.1408,52.9430,0,U,57199,999,17020,.57929734E-3,.22945E-3,0
SITRO-AIS 9 (SHCHUKIN),2023-091AM,2026-07-22T12:31:23.478528,15.39307388,.00046635,97.5059,274.6388,307.7307,52.3516,0,U,57201,999,17018,.51691168E-3,.2011E-3,0
SITRO-AIS 12 (SMIRENNIY),2023-091AQ,2026-07-22T13:41:46.113504,15.39607119,.00043366,97.5071,275.1786,299.1373,60.9438,0,U,57204,999,17021,.53391013E-3,.20981E-3,0
SITRO-AIS 11 (SHEFFER),2023-091AU,2026-07-22T13:46:38.310528,15.40057790,.00042887,97.5070,275.4514,298.3320,61.7492,0,U,57208,999,17023,.54234858E-3,.21634E-3,0
SITRO-AIS 25,2024-039R,2026-07-22T14:47:16.014048,14.93672785,.01435615,95.3885,259.4379,203.3340,156.1328,0,U,59066,999,13001,.25960563E-3,.3328E-4,0
SITRO-AIS 26,2024-039S,2026-07-22T14:56:17.863008,14.93462726,.01438793,95.3886,259.3323,203.9173,155.5326,0,U,59067,999,13000,.27181813E-3,.3469E-4,0
SITRO-AIS 27,2024-039T,2026-07-22T13:59:02.910048,14.93893765,.01428663,95.3895,259.5932,202.5166,156.9751,0,U,59068,999,13002,.32639357E-3,.4211E-4,0
SITRO-AIS 28,2024-039U,2026-07-22T15:01:52.655232,14.93923117,.01428708,95.3888,259.6724,202.2434,157.2557,0,U,59071,999,13003,.30894203E-3,.3987E-4,0
GRBBETA,2024-128C,2026-07-22T04:38:52.502208,15.06841666,.00361222,61.9898,93.4263,142.1636,218.2007,0,U,60237,999,11154,.21944702E-3,.3116E-4,0
OOV-CUBE (TUBSAT-30),2024-128F,2026-07-22T06:04:30.835488,15.02894414,.0040191,61.9942,103.2884,141.6330,218.7632,0,U,60240,999,11138,.12811368E-3,.1541E-4,0
ROBUSTA-3A (MEDITERRANEE),2024-128J,2026-07-22T06:06:38.821536,15.12055488,.00370858,61.9863,84.1966,135.3056,225.1039,0,U,60243,999,11172,.4363084E-3,.7446E-4,0
LASARSAT,2024-247Q,2026-07-22T14:39:01.307520,15.48418304,.00085773,44.9743,62.8371,212.1409,147.8959,0,U,62391,999,8880,.69795866E-3,.37731E-3,0
CROCUBE,2024-247T,2026-07-22T07:17:17.252160,15.50606794,.00086917,44.9714,61.2787,216.8409,143.1886,0,U,62394,999,8879,.74884164E-3,.43823E-3,0
FORESAIL-1 PRIME,2025-276DS,2026-07-22T10:34:33.436992,15.18980330,.00022876,97.4184,276.0699,27.1883,332.9471,0,U,66778,999,3575,.18870499E-3,.3879E-4,0
KNACKSAT-2,1998-067XZ,2026-07-22T11:38:31.436448,15.62993156,.00075868,51.6274,116.5146,352.0545,8.0328,0,U,67683,999,2579,.62866951E-3,.58135E-3,0
